BLUEBON                 
1 62688U 25009CH  26068.70316231  .00010452  00000+0  37313-3 0  9992
2 62688  97.4017 152.2033 0001193  43.3900 316.7434 15.29047253 63767
STARLINK-33835          
1 63645U 25083M   26068.21662492  .00034419  00000+0  12552-2 0  9993
2 63645  43.0050   7.9491 0001580 281.8187  78.2488 15.27561048 50020
